{
  "type": "FeatureCollection",
  "generator": "overpass-turbo",
  "copyright": "The data included in this document is from www.openstreetmap.org. The data is made available under ODbL.",
  "timestamp": "2025-10-28T17:45:30Z",
  "features": [
    {
      "type": "Feature",
      "properties": {
        "@id": "node/2202077226",
        "addr:housenumber": "2",
        "addr:street": "Calle Marroquíes",
        "name": "Colaborativa.eu",
        "office": "coworking",
        "phone": "+34 957 782 164",
        "website": "https://colaborativa.eu",
        "wheelchair": "limited"
      },
      "geometry": {
        "type": "Point",
        "coordinates": [
          -4.7756896,
          37.8905084
        ]
      },
      "id": "node/2202077226"
    },
    {
      "type": "Feature",
      "properties": {
        "@id": "node/2432467976",
        "addr:city": "Málaga",
        "addr:housenumber": "2",
        "addr:street": "Calle Ramos Marín",
        "addr:unit": "A",
        "amenity": "coworking_space",
        "level": "0",
        "name": "Coworking The Translation Factory",
        "office": "coworking",
        "phone": "+34 952213967",
        "website": "https://thetranslationfactory.es/"
      },
      "geometry": {
        "type": "Point",
        "coordinates": [
          -4.4185383,
          36.7243416
        ]
      },
      "id": "node/2432467976"
    },
    {
      "type": "Feature",
      "properties": {
        "@id": "node/2512854385",
        "addr:street": "Plaza Doblas",
        "name": "CoRab21 Coworking",
        "office": "coworking"
      },
      "geometry": {
        "type": "Point",
        "coordinates": [
          -4.7785049,
          37.8885218
        ]
      },
      "id": "node/2512854385"
    },
    {
      "type": "Feature",
      "properties": {
        "@id": "node/3216109058",
        "addr:city": "Sevilla",
        "addr:housenumber": "9",
        "addr:postcode": "41003",
        "addr:street": "Plaza Maria Purísima de la Cruz",
        "check_date": "2023-10-20",
        "email": "gallorojo@gallorojo.es",
        "name": "Gallo Rojo",
        "office": "coworking",
        "website": "https://gallorojo.es/"
      },
      "geometry": {
        "type": "Point",
        "coordinates": [
          -5.9917556,
          37.395421
        ]
      },
      "id": "node/3216109058"
    },
    {
      "type": "Feature",
      "properties": {
        "@id": "node/3414938219",
        "addr:city": "ALMERIA",
        "addr:housenumber": "1",
        "addr:postcode": "04002",
        "addr:street": "Calle Arráez, 11",
        "air_conditioning": "yes",
        "description": "Workspace Coworking Almería es el primer coworking de la ciudad, diseñado para ofrecer un espacio profesional y colaborativo con puestos de trabajo y salas de reuniones en un entorno dinámico.",
        "email": "info@workspace.es",
        "internet_access": "wlan",
        "internet_access:fee": "customers",
        "mobile": "+34625018767",
        "name": "Coworking Almeria Workspace",
        "office": "coworking",
        "opening_hours": "09:00-20:00",
        "phone": "+34 625018767",
        "website": "https://www.workspace.es/",
        "wheelchair": "yes"
      },
      "geometry": {
        "type": "Point",
        "coordinates": [
          -2.4686173,
          36.8393026
        ]
      },
      "id": "node/3414938219"
    },
    {
      "type": "Feature",
      "properties": {
        "@id": "node/3734289426",
        "addr:city": "Granada",
        "addr:postcode": "18002",
        "addr:street": "Calle Cruz",
        "email": "comunidad@errant.es",
        "internet_access": "wlan",
        "name": "erranT",
        "office": "coworking",
        "opening_hours": "09:00-21:00",
        "phone": "+34 958 25 86 60",
        "website": "https://www.errant.es"
      },
      "geometry": {
        "type": "Point",
        "coordinates": [
          -3.6025755,
          37.1731632
        ]
      },
      "id": "node/3734289426"
    },
    {
      "type": "Feature",
      "properties": {
        "@id": "node/4855451340",
        "addr:city": "Málaga",
        "addr:housenumber": "50",
        "addr:postcode": "29012",
        "addr:street": "Calle Victoria",
        "check_date": "2024-09-22",
        "name": "Neurona Center",
        "office": "coworking",
        "website": "https://neurona.center/"
      },
      "geometry": {
        "type": "Point",
        "coordinates": [
          -4.4154341,
          36.724655
        ]
      },
      "id": "node/4855451340"
    },
    {
      "type": "Feature",
      "properties": {
        "@id": "node/5446337361",
        "name": "INN Offices",
        "office": "coworking"
      },
      "geometry": {
        "type": "Point",
        "coordinates": [
          -6.0617905,
          37.3537165
        ]
      },
      "id": "node/5446337361"
    },
    {
      "type": "Feature",
      "properties": {
        "@id": "node/5937815686",
        "addr:city": "Granada",
        "addr:housenumber": "40",
        "addr:postcode": "18002",
        "addr:street": "Calle Buensuceso",
        "email": "info@lavariable.es",
        "internet_access": "wlan",
        "name": "La Variable",
        "office": "coworking",
        "phone": "+34 958 08 34 96",
        "website": "https://www.lavariable.es/"
      },
      "geometry": {
        "type": "Point",
        "coordinates": [
          -3.6048462,
          37.1742968
        ]
      },
      "id": "node/5937815686"
    },
    {
      "type": "Feature",
      "properties": {
        "@id": "node/6432703024",
        "addr:city": "Almería",
        "addr:housenumber": "19",
        "addr:postcode": "04001",
        "addr:street": "Calle González Garbín",
        "addr:unit": "Local",
        "contact:facebook": "https://www.facebook.com/woodcowork",
        "email": "info@woodworkcoworking.com",
        "internet_access": "yes",
        "internet_access:fee": "no",
        "mobile": "+34640323355",
        "name": "Wood Work Coworking",
        "office": "coworking",
        "opening_hours": "Mo-Fr 09:00-17:00",
        "phone": "+34950922225",
        "start_date": "2016-12-16",
        "website": "https://www.woodworkcoworking.com/",
        "wheelchair": "yes"
      },
      "geometry": {
        "type": "Point",
        "coordinates": [
          -2.4618474,
          36.8412084
        ]
      },
      "id": "node/6432703024"
    },
    {
      "type": "Feature",
      "properties": {
        "@id": "node/6820756699",
        "addr:city": "Marbella",
        "addr:postcode": "29601",
        "addr:street": "Plaza Ramón Ibañez",
        "addr:unit": "Edificio Segovia, Local 7",
        "description": "Centro de Coworking en Marbella. Alquiler de oficina, y espacios de trabajo fijos o compartidos dirijidos a profesionales del sector web (Servicios)",
        "internet_access": "wlan",
        "name": "Diweb Cowork",
        "office": "coworking",
        "opening_hours": "Mo-Fr 09:00-19:00",
        "phone": "+34622344090",
        "url": "https://diwebcowork.com"
      },
      "geometry": {
        "type": "Point",
        "coordinates": [
          -4.8894731,
          36.5169213
        ]
      },
      "id": "node/6820756699"
    },
    {
      "type": "Feature",
      "properties": {
        "@id": "node/8118277417",
        "addr:housenumber": "17",
        "addr:postcode": "29004",
        "addr:street": "Calle Alejandro Dumas",
        "name": "Coworking Beworking",
        "office": "coworking",
        "opening_hours": "24/7",
        "phone": "+34 951905967",
        "website": "http://be-working.com/es/"
      },
      "geometry": {
        "type": "Point",
        "coordinates": [
          -4.4573531,
          36.6941289
        ]
      },
      "id": "node/8118277417"
    },
    {
      "type": "Feature",
      "properties": {
        "@id": "node/8142443835",
        "addr:city": "Sevilla",
        "addr:housenumber": "20",
        "addr:postcode": "41092",
        "addr:street": "C/Leonardo Da Vinci, 20. Parque Científico y Tecnológico Isla de la Cartuja",
        "description": "En Centro de Negocios INN Offices Sevilla Cartuja disfrutarás de oficinas, despachos, salas para formaciones y zonas adaptables a tu negocio, proporcionando así un novedoso modelo de «espacios de trabajo» equipado según tus menesteres. Asimismo, estamos e",
        "image": "https://innoffices.es/wp-content/uploads/2020/04/despacho-en-alquiler-en-el-centro-de-negocios-de-la-cartuja-de-Sevilla-INN-Offices.jpeg",
        "name": "Centro de Negocios INN Offices Sevilla Cartuja",
        "office": "coworking",
        "opening_hours": "Mo-Fr 08:00-17:00",
        "phone": "+34 955280030",
        "start_date": "2017",
        "website": "https://innoffices.es"
      },
      "geometry": {
        "type": "Point",
        "coordinates": [
          -6.0055955,
          37.4087291
        ]
      },
      "id": "node/8142443835"
    },
    {
      "type": "Feature",
      "properties": {
        "@id": "node/8279087754",
        "addr:city": "Málaga",
        "addr:housenumber": "4",
        "addr:postcode": "29007",
        "addr:street": "Calle Doña Enriqueta",
        "addr:unit": "1",
        "air_conditioning": "yes",
        "amenity": "coworking_space",
        "email": "malaga@coworking-malaga.org",
        "image": "http://coworking-malaga.org/imagenes/coworking-malaga-logo.jpg",
        "internet_access": "yes",
        "name": "Coworking Málaga",
        "note": "Oficina, despacho, aula, sala de juntas en Malaga centro.",
        "office": "coworking",
        "phone": "+34951133908",
        "website": "http://coworking-malaga.org/",
        "wheelchair": "yes"
      },
      "geometry": {
        "type": "Point",
        "coordinates": [
          -4.4304216,
          36.7192876
        ]
      },
      "id": "node/8279087754"
    },
    {
      "type": "Feature",
      "properties": {
        "@id": "node/9580353519",
        "addr:housenumber": "7",
        "addr:postcode": "29002",
        "addr:street": "Calle Explanada de la Estación",
        "brand": "Impact Hub",
        "brand:wikidata": "Q25205858",
        "brand:wikipedia": "en:Impact Hub (global network)",
        "internet_access": "wlan",
        "name": "Impact Hub",
        "office": "coworking",
        "opening_hours": "Mo-Fr 09:00-18:00",
        "phone": "+34 683 556 442",
        "website": "https://malaga.impacthub.net"
      },
      "geometry": {
        "type": "Point",
        "coordinates": [
          -4.4313956,
          36.7124639
        ]
      },
      "id": "node/9580353519"
    },
    {
      "type": "Feature",
      "properties": {
        "@id": "node/9971101683",
        "addr:city": "La Herradura",
        "addr:housenumber": "4",
        "addr:postcode": "18697",
        "addr:street": "Calle Las Palomas",
        "internet_access": "wlan",
        "name": "Tropi Coworking",
        "office": "coworking",
        "opening_hours": "24/7",
        "phone": "+34633453361",
        "website": "https://tropicoworking.com"
      },
      "geometry": {
        "type": "Point",
        "coordinates": [
          -3.7412,
          36.7345416
        ]
      },
      "id": "node/9971101683"
    },
    {
      "type": "Feature",
      "properties": {
        "@id": "node/10123912419",
        "addr:housenumber": "6",
        "addr:postcode": "29002",
        "addr:street": "Calle Callejones del Perchel",
        "alt_name": "Coworking Málaga",
        "contact:facebook": "ImpactHubMalaga",
        "contact:instagram": "impacthubmalaga",
        "contact:linkedin": "impacthubmalaga",
        "name": "Impact Hub Málaga",
        "office": "coworking",
        "opening_hours": "Mo-Fr 09:00-18:00",
        "phone": "+34 680417993",
        "website": "https://malaga.impacthub.net",
        "wikimedia_commons": "File:Impact Hub Málaga.jpg"
      },
      "geometry": {
        "type": "Point",
        "coordinates": [
          -4.4305553,
          36.7150249
        ]
      },
      "id": "node/10123912419"
    },
    {
      "type": "Feature",
      "properties": {
        "@id": "node/11124770968",
        "addr:city": "Córdoba",
        "addr:housenumber": "7",
        "addr:postcode": "14004",
        "addr:street": "Calle del Secretario Carretero",
        "contact:facebook": "https://www.facebook.com/laZonaCoworking",
        "contact:instagram": "https://www.instagram.com/lazonacoworking/",
        "contact:twitter": "https://twitter.com/laZonaCoworking",
        "email": "hola@lazona.co",
        "internet_access": "yes",
        "internet_access:fee": "customers",
        "name": "LaZona",
        "office": "coworking",
        "phone": "+34 683 49 01 02",
        "website": "https://lazona.co"
      },
      "geometry": {
        "type": "Point",
        "coordinates": [
          -4.7874733,
          37.8838761
        ]
      },
      "id": "node/11124770968"
    },
    {
      "type": "Feature",
      "properties": {
        "@id": "node/11178515977",
        "addr:city": "Málaga",
        "addr:housenumber": "7",
        "addr:postcode": "29007",
        "addr:street": "Calle Luis Francisco Pallardo Peinado",
        "internet_access": "wlan",
        "internet_access:fee": "customers",
        "name": "El Círculo Coworking",
        "office": "coworking",
        "phone": "951 072 967",
        "website": "https://elcirculocoworking.com/"
      },
      "geometry": {
        "type": "Point",
        "coordinates": [
          -4.4502702,
          36.7157318
        ]
      },
      "id": "node/11178515977"
    },
    {
      "type": "Feature",
      "properties": {
        "@id": "node/11184103562",
        "brand": "Spaces",
        "brand:wikidata": "Q87629680",
        "check_date": "2023-09-11",
        "name": "Spaces",
        "office": "coworking"
      },
      "geometry": {
        "type": "Point",
        "coordinates": [
          -5.9939606,
          37.3929809
        ]
      },
      "id": "node/11184103562"
    },
    {
      "type": "Feature",
      "properties": {
        "@id": "node/11578475729",
        "addr:city": "Jaén",
        "addr:postcode": "23001",
        "addr:street": "Calle Obispo Aguilar",
        "name": "Cuatro Gatos Coworking",
        "office": "coworking"
      },
      "geometry": {
        "type": "Point",
        "coordinates": [
          -3.7878676,
          37.76592
        ]
      },
      "id": "node/11578475729"
    },
    {
      "type": "Feature",
      "properties": {
        "@id": "node/11599277691",
        "addr:housenumber": "10",
        "addr:street": "Calle Gran Capitán",
        "contact:email": "hola@muonkowork.com",
        "contact:mobile": "+34 655 87 36 73",
        "contact:website": "https://muoncowork.com/",
        "name": "Muon Cowork",
        "office": "coworking"
      },
      "geometry": {
        "type": "Point",
        "coordinates": [
          -3.6044285,
          37.1784303
        ]
      },
      "id": "node/11599277691"
    },
    {
      "type": "Feature",
      "properties": {
        "@id": "node/12098745301",
        "addr:housenumber": "5",
        "addr:street": "Calle Acera del Casino",
        "name": "Santander Work Café",
        "office": "coworking",
        "opening_hours": "Mo-Th 08:30-19:00; Fr 08:30-14:30",
        "operator": "Banco Santander",
        "operator:wikidata": "Q6496310",
        "outdoor_seating": "no"
      },
      "geometry": {
        "type": "Point",
        "coordinates": [
          -3.599166,
          37.1728447
        ]
      },
      "id": "node/12098745301"
    },
    {
      "type": "Feature",
      "properties": {
        "@id": "node/12398455089",
        "addr:housenumber": "29",
        "addr:street": "Calle Paco Miranda",
        "check_date": "2024-12-05",
        "description": "Espacio Creativo",
        "name": "Coworkshop",
        "office": "coworking"
      },
      "geometry": {
        "type": "Point",
        "coordinates": [
          -4.4165413,
          36.7317797
        ]
      },
      "id": "node/12398455089"
    },
    {
      "type": "Feature",
      "properties": {
        "@id": "node/12506874146",
        "check_date": "2025-01-16",
        "name": "Alpujarra Knowmad Land",
        "office": "coworking",
        "phone": "+34 642963913",
        "website": "https://www.alpujarraknowmads.com"
      },
      "geometry": {
        "type": "Point",
        "coordinates": [
          -3.0544305,
          36.9601894
        ]
      },
      "id": "node/12506874146"
    },
    {
      "type": "Feature",
      "properties": {
        "@id": "node/12660709909",
        "building": "office",
        "long_name": "Incubadora de Alta Tecnología, Transición Verde y Digital",
        "name": "Matriz",
        "office": "coworking",
        "old_name": "Eureka"
      },
      "geometry": {
        "type": "Point",
        "coordinates": [
          -3.7897923,
          37.9402795
        ]
      },
      "id": "node/12660709909"
    },
    {
      "type": "Feature",
      "properties": {
        "@id": "node/12663519537",
        "addr:city": "Motril",
        "addr:postcode": "18600",
        "addr:street": "Calle Ancha",
        "name": "Centro de estudios Julia Mª Pérez García",
        "office": "coworking"
      },
      "geometry": {
        "type": "Point",
        "coordinates": [
          -3.5135749,
          36.7522294
        ]
      },
      "id": "node/12663519537"
    },
    {
      "type": "Feature",
      "properties": {
        "@id": "node/12712350243",
        "addr:city": "Motril",
        "addr:postcode": "18600",
        "addr:street": "Calle Pozuelo",
        "email": "espacioutropico@gmail.com",
        "internet_access": "yes",
        "internet_access:fee": "customers",
        "mobile": "+34 679053702",
        "name": "Espacio utrópico",
        "office": "coworking",
        "opening_hours": "Mo-Th 09:00-18:00; Fr 09:00-16:00",
        "website": "https://www.espacioutropico.com/"
      },
      "geometry": {
        "type": "Point",
        "coordinates": [
          -3.5190856,
          36.7465503
        ]
      },
      "id": "node/12712350243"
    },
    {
      "type": "Feature",
      "properties": {
        "@id": "node/13128822692",
        "name": "El Patio",
        "office": "coworking"
      },
      "geometry": {
        "type": "Point",
        "coordinates": [
          -4.7753624,
          37.885845
        ]
      },
      "id": "node/13128822692"
    },
    {
      "type": "Feature",
      "properties": {
        "@id": "node/13146093255",
        "name": "Espacio Plástico",
        "office": "coworking"
      },
      "geometry": {
        "type": "Point",
        "coordinates": [
          -4.771542,
          37.8951911
        ]
      },
      "id": "node/13146093255"
    }
  ]
}